STARLINK-4355           
1 53048U 22077F   25090.77585482  .00000635  00000+0  54061-4 0  9993
2 53048  97.6554 273.5104 0002384  80.2582 279.8911 15.01263153149460
STARLINK-4345           
1 53049U 22077G   25090.76820863  .00000160  00000+0  17041-4 0  9998
2 53049  97.6543 273.5062 0002849  50.2515 309.8960 15.01269944149463
STARLINK-4343           
1 53050U 22077H   25090.77375963 -.00001082  00000+0 -79594-4 0  9994
2 53050  97.6541 273.5085 0003298  66.4276 293.7295 15.01265467149468
STARLINK-4336           
1 53051U 22077J   25090.77563244  .00001076  00000+0  88364-4 0  9992
2 53051  97.6545 273.4933 0002357  61.9499 298.1964 15.01260401149461
STARLINK-4341           
1 53052U 22077K   25090.77190939  .00000803  00000+0  67138-4 0  9993
2 53052  97.6543 273.5060 0002585  67.5043 292.6455 15.01258773149465
STARLINK-4337           
1 53053U 22077L   25090.76450108  .00000329  00000+0  30184-4 0  9994
2 53053  97.6543 273.4974 0002605  80.5603 279.5915 15.01262514149462
STARLINK-4339           
1 53054U 22077M   25090.77007113  .00001481  00000+0  11983-3 0  9995
2 53054  97.6543 273.5041 0002709  72.5917 287.5603 15.01266637149466
STARLINK-4338           
1 53055U 22077N   25090.49603678  .00000602  00000+0  51429-4 0  9997
2 53055  97.6540 273.2319 0001391  93.3018 266.8365 15.01265588149423
STARLINK-4314           
1 53056U 22077P   25090.76635296 -.00000163  00000+0 -81160-5 0  9999
2 53056  97.6545 273.4995 0002272  45.5477 314.5933 15.01261648149467
STARLINK-4252           
1 53057U 22077Q   25090.75894561  .00000377  00000+0  33935-4 0  9992
2 53057  97.6537 273.4902 0001925  90.8932 269.2512 15.01262501149468
STARLINK-4317           
1 53058U 22077R   25090.44445983  .00001795  00000+0  14438-3 0  9990
2 53058  97.6553 273.1498 0001323  81.4102 278.7272 15.01242731149417
STARLINK-4320           
1 53059U 22077S   25090.75549163 -.00000723  00000+0 -51658-4 0  9998
2 53059  97.6528 273.4847 0001511  88.3429 271.7968 15.01268160149462
STARLINK-4305           
1 53060U 22077T   25090.76079860  .00000219  00000+0  21676-4 0  9998
2 53060  97.6542 273.4929 0001924  92.1725 267.9720 15.01261991149469
STARLINK-4308           
1 53061U 22077U   25090.75337438  .00001465  00000+0  11855-3 0  9997
2 53061  97.6526 273.4820 0001208  94.3284 265.8078 15.01273821149469
STARLINK-4311           
1 53062U 22077V   25090.75709204  .00000108  00000+0  12989-4 0  9995
2 53062  97.6534 273.4876 0000673 101.8775 258.2524 15.01263241149461
STARLINK-4307           
1 53063U 22077W   25090.77746082  .00000410  00000+0  36505-4 0  9999
2 53063  97.6556 273.5294 0002755  78.6553 281.4981 15.01272813 21053
STARLINK-4313           
1 53064U 22077X   25090.75524159  .00000151  00000+0  16339-4 0  9992
2 53064  97.6530 273.4850 0000967 101.7807 258.3526 15.01262867149468
STARLINK-4312           
1 53065U 22077Y   25090.74969857  .00005194  00000+0  40850-3 0  9996
2 53065  97.6527 273.4752 0000765 110.5517 249.5790 15.01279864149468
STARLINK-4309           
1 53066U 22077Z   25090.91668981  .00074722  00000+0  57663-2 0  9992
2 53066  97.6538 273.6424 0000432 132.5996  58.2213 15.01223695  5710
STARLINK-4306           
1 53067U 22077AA  25090.91668981  .00284253  00000+0  16398-1 0  9994
2 53067  97.6545 273.6831 0001856  99.1040 223.1356 15.10945864  5811
STARLINK-4325           
1 53068U 22077AB  25090.75153677  .00000627  00000+0  53364-4 0  9996
2 53068  97.6527 273.4709 0000805 133.4823 226.6469 15.01264822149469
STARLINK-4323           
1 53069U 22077AC  25090.74226622  .00001709  00000+0  13760-3 0  9994
2 53069  97.6548 273.4598 0002596 203.1801 156.9307 15.01271026149469
STARLINK-4342           
1 53070U 22077AD  25090.48122432  .00001022  00000+0  84160-4 0  9992
2 53070  97.6542 273.2055 0000279 220.9818 139.1385 15.01261960149423
STARLINK-4328           
1 53071U 22077AE  25090.74042601  .00000762  00000+0  63922-4 0  9994
2 53071  97.6551 273.4574 0002791 205.9233 154.1852 15.01246462149467
STARLINK-4344           
1 53072U 22077AF  25090.73672406  .00000803  00000+0  67072-4 0  9992
2 53072  97.6554 273.4710 0002493 164.6107 195.5193 15.01264357149463
STARLINK-4346           
1 53073U 22077AG  25090.84225017  .00030278  00000+0  21837-2 0  9993
2 53073  97.6497 273.5984 0002325 291.9377  68.1601 15.04071173149487
STARLINK-4310           
1 53074U 22077AH  25090.74412744  .00000629  00000+0  53532-4 0  9994
2 53074  97.6546 273.4541 0001406 237.9795 122.1292 15.01264282149461
STARLINK-4348           
1 53075U 22077AJ  25090.73857367  .00000826  00000+0  68859-4 0  9995
2 53075  97.6552 273.4434 0001047 213.1738 146.9420 15.01265343149460
STARLINK-4347           
1 53076U 22077AK  25090.47036088  .00000638  00000+0  54242-4 0  9998
2 53076  97.6556 273.1950 0002730 179.8063 180.3163 15.01263000149424
STARLINK-4322           
1 53078U 22077AM  25090.46826419  .00000780  00000+0  65278-4 0  9993
2 53078  97.6555 273.1895 0001521 163.7498 196.3775 15.01266361149423
STARLINK-4327           
1 53079U 22077AN  25090.46270513  .00001452  00000+0  11756-3 0  9990
2 53079  97.6576 273.1893 0001059 157.8126 202.3144 15.01267916149428
STARLINK-4330           
1 53080U 22077AP  25090.46641367  .00001639  00000+0  13211-3 0  9996
2 53080  97.6557 273.1884 0002073 180.5517 179.5705 15.01267142149422
STARLINK-4326           
1 53081U 22077AQ  25090.46666085  .00001290  00000+0  10501-3 0  9993
2 53081  97.6557 273.1714 0002448 163.5383 196.5921 15.01260479149428
STARLINK-4321           
1 53082U 22077AR  25090.46085702  .00001946  00000+0  15600-3 0  9998
2 53082  97.6583 273.1911 0000861  84.7889 275.3434 15.01267057149423
STARLINK-4251           
1 53083U 22077AS  25090.78116192  .00000954  00000+0  78881-4 0  9991
2 53083  97.6562 273.5158 0002437  81.6460 278.5041 15.01264092149470
STARLINK-4319           
1 53084U 22077AT  25090.45900581  .00001243  00000+0  10132-3 0  9995
2 53084  97.6576 273.1921 0000538  92.8649 267.2637 15.01265512149422
STARLINK-4324           
1 53085U 22077AU  25090.78696224  .00001076  00000+0  88345-4 0  9994
2 53085  97.6570 273.5231 0001903  84.0001 276.1440 15.01265850149478
STARLINK-4318           
1 53086U 22077AV  25090.79041815  .00001224  00000+0  99864-4 0  9999
2 53086  97.6573 273.5205 0000941  89.2267 270.9065 15.01264585149474
STARLINK-4329           
1 53087U 22077AW  25090.76905029  .00001444  00000+0  11432-3 0  9991
2 53087  97.6678 273.5706 0004816  61.7419 298.4291 15.02148554149481
STARLINK-4333           
1 53088U 22077AX  25090.66668981 -.00050772  00000+0 -39757-2 0  9993
2 53088  97.6558 273.4003 0001747  90.9175 340.9503 15.01269775  5489
STARLINK-4063           
1 53132U 22083A   25090.74245803  .00000896  00000+0  74357-4 0  9990
2 53132  53.2155 273.6661 0001243  85.7302 274.3832 15.08842000149442
STARLINK-4150           
1 53134U 22083C   25090.81605922  .00000582  00000+0  54668-4 0  9997
2 53134  53.2167 273.3388 0001280  92.8117 267.3021 15.08838662149456
STARLINK-4023           
1 53135U 22083D   25090.82342298  .00003036  00000+0  20875-3 0  9992
2 53135  53.2154 273.3046 0001266  85.7416 274.3720 15.08843686150448
STARLINK-4152           
1 53136U 22083E   25090.81972796 -.00002528  00000+0 -14082-3 0  9994
2 53136  53.2161 273.3217 0001308  89.4346 270.6796 15.08833447150443
STARLINK-4145           
1 53137U 22083F   25090.81237985 -.00000290  00000+0 -11753-6 0  9998
2 53137  53.2165 273.3526 0001345  82.0531 278.0614 15.08837714150089
STARLINK-4141           
1 53138U 22083G   25090.81104498 -.00004078  00000+0 -23847-3 0  9993
2 53138  53.2171 268.5426 0001398  87.6975 272.4177 15.08812100150144
STARLINK-4185           
1 53139U 22083H   25090.80134594  .00000252  00000+0  33936-4 0  9992
2 53139  53.2163 273.4044 0001821  95.4454 264.6746 15.08844146149459
STARLINK-4170           
1 53140U 22083J   25090.80501870  .00000339  00000+0  39359-4 0  9990
2 53140  53.2166 273.3898 0001199  90.0008 270.1121 15.08837602149452
STARLINK-4103           
1 53141U 22083K   25090.78662188  .00003041  00000+0  20909-3 0  9991
2 53141  53.2177 273.4731 0001201  95.9700 264.1429 15.08831545149453
STARLINK-4101           
1 53142U 22083L   25090.79492784  .00000609  00000+0  56313-4 0  9992
2 53142  53.2170 273.4044 0001223  87.8336 272.2796 15.08842519149464
STARLINK-4102           
1 53143U 22083M   25090.78293702  .00001406  00000+0  10640-3 0  9999
2 53143  53.2164 273.4878 0001382  90.7447 269.3704 15.08843059149450
STARLINK-4100           
1 53144U 22083N   25090.79397521  .00000335  00000+0  39112-4 0  9991
2 53144  53.2167 273.4459 0001399  90.1436 269.9716 15.08840578149451
STARLINK-4106           
1 53145U 22083P   25090.77557425  .00000300  00000+0  36959-4 0  9999
2 53145  53.2170 273.5239 0001250  87.2635 272.8500 15.08844956149455
STARLINK-4099           
1 53146U 22083Q   25090.79029812  .00000597  00000+0  55591-4 0  9997
2 53146  53.2163 273.4564 0001246  93.8703 266.2431 15.08838921149457
STARLINK-4094           
1 53147U 22083R   25090.77189391  .00001004  00000+0  81146-4 0  9994
2 53147  53.2170 273.5390 0001464  89.5478 270.5682 15.08843865150100
STARLINK-4021           
1 53149U 22083T   25090.79955959  .00000278  00000+0  35541-4 0  9999
2 53149  53.2170 263.6144 0001219  85.7371 274.3761 15.08842003149591
STARLINK-4038           
1 53150U 22083U   25090.75443405  .00011018  00000+0  70913-3 0  9990
2 53150  53.2158 263.6179 0001349  84.2623 275.8523 15.08847481149581
STARLINK-4040           
1 53151U 22083V   25090.74337167  .00001547  00000+0  11523-3 0  9995
2 53151  53.2169 263.6659 0001410  86.8276 273.2878 15.08847353149581
STARLINK-4045           
1 53152U 22083W   25090.75073347  .00001532  00000+0  11428-3 0  9992
2 53152  53.2171 263.6332 0001240  87.1972 272.9162 15.08845172149580
